CCSDS_OMM_VERS = 2.0
CREATION_DATE  = 
ORIGINATOR     = 

OBJECT_NAME    = SDA_1680
OBJECT_ID      = 2025-230S
CENTER_NAME    = EARTH
REF_FRAME      = TEME
TIME_SYSTEM    = UTC
MEAN_ELEMENT_THEORY = SGP/SGP4

EPOCH          = 2025-11-04T03:32:22.844832
MEAN_MOTION    = 13.85187496
ECCENTRICITY   = .0005027
INCLINATION    = 81.3018
RA_OF_ASC_NODE = 60.3897
ARG_OF_PERICENTER = 93.1674
MEAN_ANOMALY   = 267.0058

EPHEMERIS_TYPE = 0
CLASSIFICATION_TYPE = U
NORAD_CAT_ID   = 65990
ELEMENT_SET_NO = 999
REV_AT_EPOCH   = 266
BSTAR          = .24602E-3
MEAN_MOTION_DOT = .291E-5
MEAN_MOTION_DDOT = 0

CCSDS_OMM_VERS = 2.0
CREATION_DATE  = 
ORIGINATOR     = 

OBJECT_NAME    = SDA_1681
OBJECT_ID      = 2025-230T
CENTER_NAME    = EARTH
REF_FRAME      = TEME
TIME_SYSTEM    = UTC
MEAN_ELEMENT_THEORY = SGP/SGP4

EPOCH          = 2025-11-04T03:30:47.333088
MEAN_MOTION    = 13.85267294
ECCENTRICITY   = .0005118
INCLINATION    = 81.3016
RA_OF_ASC_NODE = 60.3866
ARG_OF_PERICENTER = 97.6959
MEAN_ANOMALY   = 262.4780

EPHEMERIS_TYPE = 0
CLASSIFICATION_TYPE = U
NORAD_CAT_ID   = 65991
ELEMENT_SET_NO = 999
REV_AT_EPOCH   = 266
BSTAR          = .2364E-3
MEAN_MOTION_DOT = .28E-5
MEAN_MOTION_DDOT = 0

CCSDS_OMM_VERS = 2.0
CREATION_DATE  = 
ORIGINATOR     = 

OBJECT_NAME    = SDA_1682
OBJECT_ID      = 2025-230U
CENTER_NAME    = EARTH
REF_FRAME      = TEME
TIME_SYSTEM    = UTC
MEAN_ELEMENT_THEORY = SGP/SGP4

EPOCH          = 2025-11-04T01:55:23.784096
MEAN_MOTION    = 13.84831802
ECCENTRICITY   = .0003738
INCLINATION    = 81.3043
RA_OF_ASC_NODE = 60.4685
ARG_OF_PERICENTER = 72.1520
MEAN_ANOMALY   = 288.0045

EPHEMERIS_TYPE = 0
CLASSIFICATION_TYPE = U
NORAD_CAT_ID   = 65992
ELEMENT_SET_NO = 999
REV_AT_EPOCH   = 265
BSTAR          = .18199E-3
MEAN_MOTION_DOT = .217E-5
MEAN_MOTION_DDOT = 0

CCSDS_OMM_VERS = 2.0
CREATION_DATE  = 
ORIGINATOR     = 

OBJECT_NAME    = SDA_1683
OBJECT_ID      = 2025-230V
CENTER_NAME    = EARTH
REF_FRAME      = TEME
TIME_SYSTEM    = UTC
MEAN_ELEMENT_THEORY = SGP/SGP4

EPOCH          = 2025-11-04T01:53:48.307776
MEAN_MOTION    = 13.84912305
ECCENTRICITY   = .0004072
INCLINATION    = 81.3034
RA_OF_ASC_NODE = 60.4648
ARG_OF_PERICENTER = 74.9938
MEAN_ANOMALY   = 285.1670

EPHEMERIS_TYPE = 0
CLASSIFICATION_TYPE = U
NORAD_CAT_ID   = 65993
ELEMENT_SET_NO = 999
REV_AT_EPOCH   = 265
BSTAR          = .19714E-3
MEAN_MOTION_DOT = .234E-5
MEAN_MOTION_DDOT = 0

CCSDS_OMM_VERS = 2.0
CREATION_DATE  = 
ORIGINATOR     = 

OBJECT_NAME    = SDA_1684
OBJECT_ID      = 2025-230W
CENTER_NAME    = EARTH
REF_FRAME      = TEME
TIME_SYSTEM    = UTC
MEAN_ELEMENT_THEORY = SGP/SGP4

EPOCH          = 2025-11-04T01:56:40.338816
MEAN_MOTION    = 13.84767681
ECCENTRICITY   = .0003843
INCLINATION    = 81.3017
RA_OF_ASC_NODE = 60.4645
ARG_OF_PERICENTER = 62.2237
MEAN_ANOMALY   = 297.9309

EPHEMERIS_TYPE = 0
CLASSIFICATION_TYPE = U
NORAD_CAT_ID   = 65994
ELEMENT_SET_NO = 999
REV_AT_EPOCH   = 265
BSTAR          = .20432E-3
MEAN_MOTION_DOT = .242E-5
MEAN_MOTION_DDOT = 0

CCSDS_OMM_VERS = 2.0
CREATION_DATE  = 
ORIGINATOR     = 

OBJECT_NAME    = HULIANWANG DIGUI 12A
OBJECT_ID      = 2025-231A
CENTER_NAME    = EARTH
REF_FRAME      = TEME
TIME_SYSTEM    = UTC
MEAN_ELEMENT_THEORY = SGP/SGP4

EPOCH          = 2025-11-04T04:13:43.101984
MEAN_MOTION    = 14.03848525
ECCENTRICITY   = .0006466
INCLINATION    = 50.0004
RA_OF_ASC_NODE = 279.8911
ARG_OF_PERICENTER = 319.8580
MEAN_ANOMALY   = 40.1846

EPHEMERIS_TYPE = 0
CLASSIFICATION_TYPE = U
NORAD_CAT_ID   = 65995
ELEMENT_SET_NO = 999
REV_AT_EPOCH   = 269
BSTAR          = .11636E-3
MEAN_MOTION_DOT = .33E-6
MEAN_MOTION_DDOT = 0

CCSDS_OMM_VERS = 2.0
CREATION_DATE  = 
ORIGINATOR     = 

OBJECT_NAME    = HULIANWANG DIGUI 12B
OBJECT_ID      = 2025-231B
CENTER_NAME    = EARTH
REF_FRAME      = TEME
TIME_SYSTEM    = UTC
MEAN_ELEMENT_THEORY = SGP/SGP4

EPOCH          = 2025-11-04T04:17:42.467136
MEAN_MOTION    = 14.03879460
ECCENTRICITY   = .0009035
INCLINATION    = 49.9992
RA_OF_ASC_NODE = 279.9040
ARG_OF_PERICENTER = 325.1202
MEAN_ANOMALY   = 34.9110

EPHEMERIS_TYPE = 0
CLASSIFICATION_TYPE = U
NORAD_CAT_ID   = 65996
ELEMENT_SET_NO = 999
REV_AT_EPOCH   = 269
BSTAR          = .11517E-3
MEAN_MOTION_DOT = .31E-6
MEAN_MOTION_DDOT = 0

CCSDS_OMM_VERS = 2.0
CREATION_DATE  = 
ORIGINATOR     = 

OBJECT_NAME    = HULIANWANG DIGUI 12C
OBJECT_ID      = 2025-231C
CENTER_NAME    = EARTH
REF_FRAME      = TEME
TIME_SYSTEM    = UTC
MEAN_ELEMENT_THEORY = SGP/SGP4

EPOCH          = 2025-11-04T04:12:02.426112
MEAN_MOTION    = 14.03883032
ECCENTRICITY   = .0007584
INCLINATION    = 49.9969
RA_OF_ASC_NODE = 279.8776
ARG_OF_PERICENTER = 324.5987
MEAN_ANOMALY   = 35.4413

EPHEMERIS_TYPE = 0
CLASSIFICATION_TYPE = U
NORAD_CAT_ID   = 65997
ELEMENT_SET_NO = 999
REV_AT_EPOCH   = 269
BSTAR          = .11345E-3
MEAN_MOTION_DOT = .29E-6
MEAN_MOTION_DDOT = 0

CCSDS_OMM_VERS = 2.0
CREATION_DATE  = 
ORIGINATOR     = 

OBJECT_NAME    = HULIANWANG DIGUI 12D
OBJECT_ID      = 2025-231D
CENTER_NAME    = EARTH
REF_FRAME      = TEME
TIME_SYSTEM    = UTC
MEAN_ELEMENT_THEORY = SGP/SGP4

EPOCH          = 2025-11-04T04:04:45.045120
MEAN_MOTION    = 14.04584941
ECCENTRICITY   = .0006722
INCLINATION    = 49.9997
RA_OF_ASC_NODE = 279.8570
ARG_OF_PERICENTER = 330.7060
MEAN_ANOMALY   = 29.3467

EPHEMERIS_TYPE = 0
CLASSIFICATION_TYPE = U
NORAD_CAT_ID   = 65998
ELEMENT_SET_NO = 999
REV_AT_EPOCH   = 269
BSTAR          = .11394E-3
MEAN_MOTION_DOT = .31E-6
MEAN_MOTION_DDOT = 0

CCSDS_OMM_VERS = 2.0
CREATION_DATE  = 
ORIGINATOR     = 

OBJECT_NAME    = HULIANWANG DIGUI 12E
OBJECT_ID      = 2025-231E
CENTER_NAME    = EARTH
REF_FRAME      = TEME
TIME_SYSTEM    = UTC
MEAN_ELEMENT_THEORY = SGP/SGP4

EPOCH          = 2025-11-04T04:09:27.895392
MEAN_MOTION    = 14.03844167
ECCENTRICITY   = .0008295
INCLINATION    = 50.0016
RA_OF_ASC_NODE = 279.8788
ARG_OF_PERICENTER = 340.2968
MEAN_ANOMALY   = 19.7615

EPHEMERIS_TYPE = 0
CLASSIFICATION_TYPE = U
NORAD_CAT_ID   = 65999
ELEMENT_SET_NO = 999
REV_AT_EPOCH   = 269
BSTAR          = .10642E-3
MEAN_MOTION_DOT = .17E-6
MEAN_MOTION_DDOT = 0

CCSDS_OMM_VERS = 2.0
CREATION_DATE  = 
ORIGINATOR     = 

OBJECT_NAME    = HULIANWANG DIGUI 12F
OBJECT_ID      = 2025-231F
CENTER_NAME    = EARTH
REF_FRAME      = TEME
TIME_SYSTEM    = UTC
MEAN_ELEMENT_THEORY = SGP/SGP4

EPOCH          = 2025-11-04T03:58:39.775296
MEAN_MOTION    = 14.04998777
ECCENTRICITY   = .0005564
INCLINATION    = 50.0057
RA_OF_ASC_NODE = 279.8479
ARG_OF_PERICENTER = 335.6129
MEAN_ANOMALY   = 24.4512

EPHEMERIS_TYPE = 0
CLASSIFICATION_TYPE = U
NORAD_CAT_ID   = 66000
ELEMENT_SET_NO = 999
REV_AT_EPOCH   = 269
BSTAR          = .114E-3
MEAN_MOTION_DOT = .33E-6
MEAN_MOTION_DDOT = 0

CCSDS_OMM_VERS = 2.0
CREATION_DATE  = 
ORIGINATOR     = 

OBJECT_NAME    = HULIANWANG DIGUI 12G
OBJECT_ID      = 2025-231G
CENTER_NAME    = EARTH
REF_FRAME      = TEME
TIME_SYSTEM    = UTC
MEAN_ELEMENT_THEORY = SGP/SGP4

EPOCH          = 2025-11-04T04:05:00.585888
MEAN_MOTION    = 14.03866145
ECCENTRICITY   = .0006726
INCLINATION    = 50.0025
RA_OF_ASC_NODE = 279.8636
ARG_OF_PERICENTER = 348.2890
MEAN_ANOMALY   = 11.7857

EPHEMERIS_TYPE = 0
CLASSIFICATION_TYPE = U
NORAD_CAT_ID   = 66001
ELEMENT_SET_NO = 999
REV_AT_EPOCH   = 269
BSTAR          = .11769E-3
MEAN_MOTION_DOT = .35E-6
MEAN_MOTION_DDOT = 0

