SDA_1680                
1 65990U 25230S   25308.14748663  .00000291  00000+0  24602-3 0  9996
2 65990  81.3018  60.3897 0005027  93.1674 267.0058 13.85187496  2663
SDA_1681                
1 65991U 25230T   25308.14638117  .00000280  00000+0  23640-3 0  9998
2 65991  81.3016  60.3866 0005118  97.6959 262.4780 13.85267294  2660
SDA_1682                
1 65992U 25230U   25308.08013639  .00000217  00000+0  18199-3 0  9991
2 65992  81.3043  60.4685 0003738  72.1520 288.0045 13.84831802  2657
SDA_1683                
1 65993U 25230V   25308.07903134  .00000234  00000+0  19714-3 0  9992
2 65993  81.3034  60.4648 0004072  74.9938 285.1670 13.84912305  2652
SDA_1684                
1 65994U 25230W   25308.08102244  .00000242  00000+0  20432-3 0  9995
2 65994  81.3017  60.4645 0003843  62.2237 297.9309 13.84767681  2653
HULIANWANG DIGUI 12A    
1 65995U 25231A   25308.17619331  .00000033  00000+0  11636-3 0  9991
2 65995  50.0004 279.8911 0006466 319.8580  40.1846 14.03848525  2698
HULIANWANG DIGUI 12B    
1 65996U 25231B   25308.17896374  .00000031  00000+0  11517-3 0  9992
2 65996  49.9992 279.9040 0009035 325.1202  34.9110 14.03879460  2699
HULIANWANG DIGUI 12C    
1 65997U 25231C   25308.17502808  .00000029  00000+0  11345-3 0  9995
2 65997  49.9969 279.8776 0007584 324.5987  35.4413 14.03883032  2691
HULIANWANG DIGUI 12D    
1 65998U 25231D   25308.16996580  .00000031  00000+0  11394-3 0  9996
2 65998  49.9997 279.8570 0006722 330.7060  29.3467 14.04584941  2698
HULIANWANG DIGUI 12E    
1 65999U 25231E   25308.17323953  .00000017  00000+0  10642-3 0  9995
2 65999  50.0016 279.8788 0008295 340.2968  19.7615 14.03844167  2691
HULIANWANG DIGUI 12F    
1 66000U 25231F   25308.16573814  .00000033  00000+0  11400-3 0  9992
2 66000  50.0057 279.8479 0005564 335.6129  24.4512 14.04998777  2697
HULIANWANG DIGUI 12G    
1 66001U 25231G   25308.17014567  .00000035  00000+0  11769-3 0  9999
2 66001  50.0025 279.8636 0006726 348.2890  11.7857 14.03866145  2697
